FENGYUN 1C DEB          
1 31682U 99025CCQ 17346.33560816  .00003483  00000-0  81612-3 0  9997
2 31682  98.7231  27.6455 0034240 115.4373 245.0372 14.54867104551709
